STARLINK-1139           
1 45065U 20006X   22361.59759905  .00001772  00000+0  13780-3 0  9999
2 45065  53.0538 110.4013 0001355  83.4273 276.6870 15.06408827161024
STARLINK-1145           
1 45066U 20006Y   22360.64295003  .00000391  00000+0  45146-4 0  9997
2 45066  53.0569 114.6743 0001844  47.3750 312.7394 15.06398827160533
STARLINK-1150           
1 45067U 20006Z   22361.58653760  .00001572  00000+0  12441-3 0  9993
2 45067  53.0530 110.4429 0001820  54.2464 305.8694 15.06403309161023
STARLINK-1161           
1 45068U 20006AA  22361.02902157  .00002320  00000+0  17461-3 0  9999
2 45068  53.0539 112.8126 0001479  75.3013 284.8140 15.06392567160593
STARLINK-1167           
1 45071U 20006AD  22361.35432615  .00001737  00000+0  13543-3 0  9994
2 45071  53.0545 111.4742 0001621  56.8480 303.2665 15.06405275160649
STARLINK-1168           
1 45072U 20006AE  22361.35802218  .00003028  00000+0  22210-3 0  9991
2 45072  53.0551 111.4711 0001285  85.0060 275.1075 15.06401805160644
STARLINK-1170           
1 45073U 20006AF  22361.58285430  .00002638  00000+0  19592-3 0  9993
2 45073  53.0560 110.4513 0001465  58.1537 301.9594 15.06407495160672
STARLINK-1172           
1 45074U 20006AG  22361.56811344  .00005070  00000+0  35886-3 0  9998
2 45074  53.0553 110.5243 0001327  88.7230 271.3911 15.06417640160678
STARLINK-1174           
1 45075U 20006AH  22361.60128218  .00002310  00000+0  17387-3 0  9995
2 45075  53.0569 110.3841 0001568  59.3214 300.7929 15.06406223160683
STARLINK-1180           
1 45076U 20006AJ  22361.60770927  .00003153  00000+0  23041-3 0  9996
2 45076  53.0560 110.3460 0001837  49.6032 310.5117 15.06406747160680
STARLINK-1177           
1 45078U 20006AL  22360.69823878  .00000260  00000+0  36361-4 0  9996
2 45078  53.0554 114.4339 0001347  60.0824 300.0299 15.06391138160533
STARLINK-1149           
1 45079U 20006AM  22361.60402166  .00004022  00000+0  28862-3 0  9998
2 45079  53.0549 110.3560 0001111  85.3097 274.8019 15.06415394160674
STARLINK-1153           
1 45080U 20006AN  22361.34696230  .00001865  00000+0  14406-3 0  9999
2 45080  53.0555 111.5199 0001706  54.2274 305.8874 15.06397118160640
STARLINK-1151           
1 45081U 20006AP  22361.58928169  .00004632  00000+0  32958-3 0  9992
2 45081  53.0563 110.4069 0001504  62.3349 297.7792 15.06405678160686
STARLINK-1160           
1 45082U 20006AQ  22361.57822675  .00002054  00000+0  15673-3 0  9998
2 45082  53.0543 110.4691 0001591  53.7945 306.3191 15.06406559161015
STARLINK-1190           
1 45083U 20006AR  22361.47781056  .00001489  00000+0  11883-3 0  9995
2 45083  53.0542 130.9208 0001496  60.5559 299.5579 15.06395504160386
STARLINK-1173           
1 45084U 20006AS  22361.45938425  .00009682  00000+0  66764-3 0  9999
2 45084  53.0523  91.0209 0001299  69.1106 291.0022 15.06418160161394
STARLINK-1179           
1 45085U 20006AT  22361.25665880  .00002846  00000+0  20988-3 0  9993
2 45085  53.0543  91.9268 0001415  86.7028 273.4123 15.06404164160911
STARLINK-1181           
1 45086U 20006AU  22361.43970759  .00046663  00000+0  16686-2 0  9992
2 45086  52.9817  60.8680 0002550 304.3664  55.7092 15.28369719161235
STARLINK-1185           
1 45087U 20006AV  22361.50729504  .00009895  00000+0  68210-3 0  9998
2 45087  53.0550  90.7998 0001593  61.8157 298.2993 15.06407962160955
STARLINK-1183           
1 45088U 20006AW  22361.52940885  .00004191  00000+0  30005-3 0  9993
2 45088  53.0550  90.6834 0001828  49.0065 311.1082 15.06408840160951
STARLINK-1136           
1 45089U 20006AX  22361.53679561  .00001143  00000+0  95606-4 0  9998
2 45089  53.0549  90.7543 0001493  65.5322 294.5822 15.06398363160959
STARLINK-1176           
1 45090U 20006AY  22361.51372704  .00004557  00000+0  32455-3 0  9991
2 45090  53.0541  90.7623 0001074  66.3663 293.7439 15.06408870160954
STARLINK-1137           
1 45092U 20006BA  22361.55521166  .00002107  00000+0  16026-3 0  9990
2 45092  53.0554  90.5846 0001437  67.7897 292.3244 15.06407704161306
STARLINK-1142           
1 45093U 20006BB  22361.55150902  .00002101  00000+0  15985-3 0  9994
2 45093  53.0520  90.5933 0002211  79.9388 280.1850 15.06419151161305
STARLINK-1146           
1 45094U 20006BC  22360.70282899 -.00000633  00000+0 -23627-4 0  9995
2 45094  53.0553  94.3987 0001392  70.6877 289.4263 15.06397930160830
STARLINK-1147           
1 45095U 20006BD  22361.36997015  .00002102  00000+0  15997-3 0  9993
2 45095  53.0565  91.4021 0001963  37.3732 322.7393 15.06404969160932
STARLINK-1152           
1 45096U 20006BE  22360.63374661  .00000300  00000+0  39017-4 0  9997
2 45096  53.0556  94.7156 0001279  81.0568 279.0566 15.06397735160816
STARLINK-1184           
1 45098U 20006BG  22360.74800483 -.00001010  00000+0 -48944-4 0  9997
2 45098  53.0542  94.2014 0001561  54.9853 305.1282 15.06396038160834
STARLINK-1186           
1 45099U 20006BH  22361.51097288  .00001067  00000+0  90488-4 0  9995
2 45099  53.0539  90.7816 0001443  80.0910 280.0242 15.06426454161301
STARLINK-1193           
1 45100U 20006BJ  22361.54048463  .00001271  00000+0  10426-3 0  9992
2 45100  53.0571  90.6582 0002096  40.8005 319.3141 15.06396281161301
STARLINK-1194           
1 45101U 20006BK  22361.46949224  .00006533  00000+0  45692-3 0  9998
2 45101  53.0545  90.9536 0002214  40.1771 319.9381 15.06411030161290
STARLINK-1195           
1 45102U 20006BL  22361.29351099  .00001810  00000+0  14034-3 0  9996
2 45102  53.0556  91.7525 0001225  74.3475 285.7649 15.06404251160913
STARLINK-1196           
1 45103U 20006BM  22361.25938308  .00001868  00000+0  14423-3 0  9992
2 45103  53.0557  91.8920 0001430  67.4013 292.7127 15.06408523160919
STARLINK-1138           
1 45178U 20012A   22361.11290465  .00001319  00000+0  10741-3 0  9991
2 45178  53.0530 252.5623 0001446 105.4350 254.6799 15.06407218158641
STARLINK-1143           
1 45179U 20012B   22361.11565308  .00001342  00000+0  10901-3 0  9997
2 45179  53.0543 252.5549 0001607  70.7613 289.3549 15.06398352158701
STARLINK-1192           
1 45180U 20012C   22361.39465187  .00023868  00000+0  11979-2 0  9995
2 45180  53.0466 241.6986 0003761 134.1363 225.9941 15.17205303158887
STARLINK-1200           
1 45181U 20012D   22361.43357169  .00002875  00000+0  21172-3 0  9993
2 45181  53.0532 251.1283 0001467  93.1912 266.9245 15.06415993158757
STARLINK-1201           
1 45182U 20012E   22361.38751427  .00000042  00000+0  21737-4 0  9995
2 45182  53.0557 231.3285 0001431  80.7029 279.4122 15.06398728158871
STARLINK-1202           
1 45183U 20012F   22361.13871266  .00002610  00000+0  19406-3 0  9995
2 45183  53.0530 252.4529 0001627  63.6548 296.4608 15.06402771158716
STARLINK-1205           
1 45184U 20012G   22361.06315384  .00001647  00000+0  12941-3 0  9998
2 45184  53.0543 232.8004 0001411 109.2786 250.8355 15.06399826158015
STARLINK-1216           
1 45185U 20012H   22361.39672370  .00008149  00000+0  56511-3 0  9991
2 45185  53.0528 251.3023 0001520  81.7903 278.3258 15.06413760158697
STARLINK-1224           
1 45186U 20012J   22361.47781126  .00001307  00000+0  10661-3 0  9996
2 45186  53.0516 250.9389 0001278 104.9317 255.1814 15.06409478158706
STARLINK-1225           
1 45187U 20012K   22361.41515245  .00001497  00000+0  11933-3 0  9991
2 45187  53.0546 251.2185 0001377  85.7055 274.4091 15.06404515158745
STARLINK-1228           
1 45188U 20012L   22361.57733214  .00001081  00000+0  91465-4 0  9995
2 45188  53.0534 210.4746 0001597  59.4459 300.6687 15.06403570159286
STARLINK-1230           
1 45189U 20012M   22361.41883651  .00001726  00000+0  13472-3 0  9997
2 45189  53.0537 251.1999 0001369  97.1571 262.9574 15.06407855155970
STARLINK-1234           
1 45190U 20012N   22361.56997485  .00000791  00000+0  72025-4 0  9997
2 45190  53.0530 210.5185 0001314  94.6541 265.4598 15.06392013159236
STARLINK-1236           
1 45191U 20012P   22361.09447663  .00000623  00000+0  60721-4 0  9998
2 45191  53.0551 252.6544 0001644  67.6146 292.5017 15.06408083155916
STARLINK-1237           
1 45192U 20012Q   22361.40040324  .00000635  00000+0  61529-4 0  9997
2 45192  53.0548 251.2837 0001609  77.3163 282.8006 15.06412265158753
STARLINK-1239           
1 45193U 20012R   22361.12397170 -.00000172  00000+0  73757-5 0  9995
2 45193  53.0548 252.5252 0001793  74.5668 285.5519 15.06392057158656
STARLINK-1240           
1 45194U 20012S   22361.52572974  .00002768  00000+0  20460-3 0  9990
2 45194  53.0541 250.7114 0001364  89.4305 270.6840 15.06403623158669
STARLINK-1241           
1 45195U 20012T   22360.94327822  .00038208  00000+0  17743-2 0  9993
2 45195  53.0455 241.6203 0003761 117.7557 242.3819 15.19667184158849
STARLINK-1244           
1 45196U 20012U   22360.97653579  .00005637  00000+0  39730-3 0  9999
2 45196  53.0572 253.1846 0001647  86.1492 273.9685 15.06373449158732
STARLINK-1269           
1 45197U 20012V   22361.09816661  .00001645  00000+0  12931-3 0  9996
2 45197  53.0547 252.6347 0001717  81.3904 278.7280 15.06401333158679
STARLINK-1154           
1 45198U 20012W   22361.02260987  .00001392  00000+0  11235-3 0  9999
2 45198  53.0541 232.9825 0001627  75.9663 284.1507 15.06393450158917
STARLINK-1197           
1 45199U 20012X   22361.09264423  .00001548  00000+0  12278-3 0  9997
2 45199  53.0544 232.6670 0001504  88.7627 271.3534 15.06395600158986
STARLINK-1199           
1 45201U 20012Z   22361.36539410  .00001210  00000+0  10010-3 0  9990
2 45201  53.0559 231.4372 0001390  86.8355 273.2793 15.06401789159022
STARLINK-1203           
1 45202U 20012AA  22361.02442949  .00052940  00000+0  18988-2 0  9991
2 45202  52.9621 218.5642 0005267 134.1084 226.0348 15.28204684159133
STARLINK-1206           
1 45204U 20012AC  22361.05945672 -.00001984  00000+0 -11427-3 0  9993
2 45204  53.0542 232.8101 0001836  76.9215 283.1979 15.06419222158994
STARLINK-1208           
1 45205U 20012AD  22361.01523688  .00001245  00000+0  10248-3 0  9997
2 45205  53.0547 232.9972 0001438  76.8497 283.2652 15.06398368158992
